[{"OBJECT_NAME":"STARLINK-34485","OBJECT_ID":"2025-139W","EPOCH":"2026-03-09T10:36:52.714656","MEAN_MOTION":15.30197102,"ECCENTRICITY":0.00011113,"INCLINATION":53.1574,"RA_OF_ASC_NODE":128.3676,"ARG_OF_PERICENTER":77.9485,"MEAN_ANOMALY":282.164,"EPHEMERIS_TYPE":0,"CLASSIFICATION_TYPE":"U","NORAD_CAT_ID":64684,"ELEMENT_SET_NO":999,"REV_AT_EPOCH":4024,"BSTAR":0.00089654486,"MEAN_MOTION_DOT":0.00026285,"MEAN_MOTION_DDOT":0},{"OBJECT_NAME":"OBJECT N","OBJECT_ID":"2019-093N","EPOCH":"2026-03-09T21:41:56.087232","MEAN_MOTION":15.29897693,"ECCENTRICITY":0.0006278,"INCLINATION":98.0505,"RA_OF_ASC_NODE":226.9456,"ARG_OF_PERICENTER":33.3806,"MEAN_ANOMALY":326.7828,"EPHEMERIS_TYPE":0,"CLASSIFICATION_TYPE":"U","NORAD_CAT_ID":44891,"ELEMENT_SET_NO":999,"REV_AT_EPOCH":33957,"BSTAR":0.0010567776,"MEAN_MOTION_DOT":0.00030617,"MEAN_MOTION_DDOT":0}]
